{"fetched_at":"2026-03-30T13:17:50Z","count":15418,"tles":[{"name":"STARLINK-5798","line1":"1 56040U 23042BG  26087.87410800  .00001779  00000+0  75973-4 0  9995","line2":"2 56040  43.0020 282.6109 0001543 273.9889  86.0786 15.26741733166134","category":"Starlink"}]}